[{"OBJECT_NAME":"SCS-01 B","OBJECT_ID":"2025-100B","EPOCH":"2026-03-09T21:49:11.508672","MEAN_MOTION":15.3317485,"ECCENTRICITY":0.00088698,"INCLINATION":97.3706,"RA_OF_ASC_NODE":145.9041,"ARG_OF_PERICENTER":288.6157,"MEAN_ANOMALY":71.4122,"EPHEMERIS_TYPE":0,"CLASSIFICATION_TYPE":"U","NORAD_CAT_ID":63983,"ELEMENT_SET_NO":999,"REV_AT_EPOCH":4567,"BSTAR":0.00098809397,"MEAN_MOTION_DOT":0.00031724,"MEAN_MOTION_DDOT":0},{"OBJECT_NAME":"STARLINK-34206","OBJECT_ID":"2025-236N","EPOCH":"2026-03-09T09:09:39.547008","MEAN_MOTION":15.30194554,"ECCENTRICITY":0.0001101,"INCLINATION":53.158,"RA_OF_ASC_NODE":105.5726,"ARG_OF_PERICENTER":76.4635,"MEAN_ANOMALY":283.6489,"EPHEMERIS_TYPE":0,"CLASSIFICATION_TYPE":"U","NORAD_CAT_ID":66098,"ELEMENT_SET_NO":999,"REV_AT_EPOCH":2288,"BSTAR":0.0009263481,"MEAN_MOTION_DOT":0.00027172,"MEAN_MOTION_DDOT":0}]
